{"type":"FeatureCollection","features":[{"type":"Feature","properties":{"slug":"blansko","name":"Blansko a Adamov","status":"computing"},"geometry":{"type":"Polygon","coordinates":[[[16.627162,49.176136],[16.65671,49.178222],[16.686261,49.1803],[16.715814,49.182371],[16.74537,49.184434],[16.774928,49.186489],[16.804489,49.188537],[16.834052,49.190578],[16.863618,49.192611],[16.893186,49.194636],[16.922756,49.196653],[16.952329,49.198664],[16.981904,49.200666],[16.978853,49.220047],[16.975799,49.239428],[16.972743,49.258809],[16.969685,49.27819],[16.966624,49.29757],[16.963561,49.31695],[16.960495,49.336331],[16.957427,49.355711],[16.954357,49.37509],[16.951284,49.39447],[16.948209,49.41385],[16.945131,49.433229],[16.915418,49.431217],[16.885707,49.429198],[16.855999,49.427171],[16.826293,49.425136],[16.79659,49.423094],[16.766889,49.421044],[16.73719,49.418987],[16.707494,49.416922],[16.677801,49.414849],[16.64811,49.412769],[16.618421,49.410681],[16.588735,49.408585],[16.591951,49.389215],[16.595165,49.369845],[16.598376,49.350475],[16.601584,49.331105],[16.60479,49.311734],[16.607994,49.292364],[16.611195,49.272993],[16.614393,49.253622],[16.617589,49.234251],[16.620782,49.214879],[16.623973,49.195508],[16.627162,49.176136]]]}},{"type":"Feature","properties":{"slug":"brno-jih","name":"Brno-jih a Židlochovice","status":"computing"},"geometry":{"type":"Polygon","coordinates":[[[16.312469,48.918175],[16.341851,48.920341],[16.371235,48.9225],[16.400622,48.924651],[16.430012,48.926795],[16.459404,48.928931],[16.488798,48.931059],[16.518196,48.93318],[16.547595,48.935294],[16.576997,48.9374],[16.606402,48.939498],[16.635809,48.941589],[16.665229,48.943666],[16.66207,48.96304],[16.658909,48.982413],[16.655745,49.001786],[16.652579,49.021158],[16.649411,49.040531],[16.64624,49.059904],[16.643066,49.079276],[16.63989,49.098648],[16.636712,49.118021],[16.633531,49.137393],[16.630348,49.156765],[16.627162,49.176136],[16.597609,49.174049],[16.568065,49.171948],[16.538524,49.16984],[16.508986,49.167724],[16.47945,49.1656],[16.449917,49.163469],[16.420387,49.16133],[16.390858,49.159184],[16.361333,49.157031],[16.33181,49.154869],[16.30229,49.1527],[16.272772,49.150524],[16.276094,49.131162],[16.279414,49.1118],[16.282731,49.092438],[16.286046,49.073076],[16.289358,49.053714],[16.292667,49.034352],[16.295974,49.014989],[16.299278,48.995627],[16.30258,48.976264],[16.305879,48.956901],[16.309175,48.937538],[16.312469,48.918175]]]}},{"type":"Feature","properties":{"slug":"brno","name":"Brno","status":"live"},"geometry":{"type":"Polygon","coordinates":[[[16.272772,49.150524],[16.30229,49.1527],[16.33181,49.154869],[16.361333,49.157031],[16.390858,49.159184],[16.420387,49.16133],[16.449917,49.163469],[16.47945,49.1656],[16.508986,49.167724],[16.538524,49.16984],[16.568065,49.171948],[16.597609,49.174049],[16.627162,49.176136],[16.623973,49.195508],[16.620782,49.214879],[16.617589,49.234251],[16.614393,49.253622],[16.611195,49.272993],[16.607994,49.292364],[16.60479,49.311734],[16.601584,49.331105],[16.598376,49.350475],[16.595165,49.369845],[16.591951,49.389215],[16.588735,49.408585],[16.559047,49.406487],[16.529366,49.404377],[16.499688,49.402258],[16.470012,49.400133],[16.440339,49.397999],[16.410668,49.395858],[16.381,49.39371],[16.351335,49.391553],[16.321672,49.38939],[16.292012,49.387218],[16.262354,49.385039],[16.232699,49.382852],[16.236053,49.363493],[16.239404,49.344133],[16.242753,49.324772],[16.246099,49.305412],[16.249442,49.286052],[16.252783,49.266691],[16.256121,49.24733],[16.259456,49.227969],[16.262789,49.208608],[16.266119,49.189247],[16.269447,49.169885],[16.272772,49.150524]]]}},{"type":"Feature","properties":{"slug":"ceske-budejovice","name":"České Budějovice","status":"live"},"geometry":{"type":"Polygon","coordinates":[[[14.204352,48.742473],[14.233524,48.74518],[14.262699,48.747878],[14.291877,48.75057],[14.321059,48.753254],[14.350244,48.75593],[14.379432,48.758599],[14.408623,48.761261],[14.437817,48.763915],[14.467015,48.766561],[14.496215,48.7692],[14.525419,48.771832],[14.554626,48.774456],[14.55066,48.793761],[14.546691,48.813067],[14.542719,48.832372],[14.538743,48.851677],[14.534765,48.870982],[14.530783,48.890287],[14.526798,48.909592],[14.52281,48.928896],[14.518818,48.948201],[14.514824,48.967505],[14.510826,48.986809],[14.506825,49.006114],[14.477484,49.003477],[14.448146,49.000832],[14.418812,48.99818],[14.38948,48.995521],[14.360152,48.992854],[14.330827,48.990179],[14.301505,48.987497],[14.272186,48.984808],[14.242871,48.982111],[14.213559,48.979406],[14.18425,48.976694],[14.154945,48.973974],[14.15908,48.954683],[14.163212,48.935392],[14.167341,48.916101],[14.171466,48.896809],[14.175588,48.877518],[14.179707,48.858226],[14.183823,48.838934],[14.187935,48.819642],[14.192045,48.80035],[14.19615,48.781058],[14.200253,48.761766],[14.204352,48.742473]]]}},{"type":"Feature","properties":{"slug":"decin","name":"Děčín","status":"live"},"geometry":{"type":"Polygon","coordinates":[[[14.159107,50.627012],[14.18943,50.62973],[14.219757,50.632441],[14.250087,50.635144],[14.28042,50.637839],[14.310756,50.640526],[14.341096,50.643205],[14.37144,50.645877],[14.401786,50.64854],[14.432137,50.651196],[14.46249,50.653844],[14.492847,50.656484],[14.523207,50.659116],[14.51907,50.678415],[14.51493,50.697714],[14.510787,50.717013],[14.506641,50.736312],[14.502491,50.75561],[14.498338,50.774908],[14.494182,50.794205],[14.490022,50.813503],[14.485859,50.8328],[14.481693,50.852096],[14.477524,50.871393],[14.473351,50.890689],[14.442844,50.888045],[14.412342,50.885392],[14.381842,50.882732],[14.351346,50.880064],[14.320853,50.877388],[14.290364,50.874704],[14.259878,50.872013],[14.229395,50.869313],[14.198916,50.866606],[14.16844,50.86389],[14.137968,50.861167],[14.107499,50.858436],[14.111819,50.839152],[14.116135,50.819868],[14.120448,50.800583],[14.124757,50.781299],[14.129063,50.762014],[14.133365,50.742729],[14.137664,50.723443],[14.14196,50.704157],[14.146252,50.684871],[14.15054,50.665585],[14.154826,50.646298],[14.159107,50.627012]]]}},{"type":"Feature","properties":{"slug":"dvur-kralove","name":"Dvůr Králové a Trutnovsko","status":"computing"},"geometry":{"type":"Polygon","coordinates":[[[15.706172,50.284568],[15.736357,50.286888],[15.766544,50.289201],[15.796735,50.291506],[15.826928,50.293803],[15.857125,50.296092],[15.887324,50.298374],[15.917526,50.300648],[15.94773,50.302914],[15.977938,50.305172],[16.008148,50.307422],[16.038361,50.309665],[16.068577,50.3119],[16.065091,50.33125],[16.061603,50.350599],[16.058112,50.369949],[16.054619,50.389298],[16.051122,50.408646],[16.047623,50.427995],[16.044121,50.447343],[16.040617,50.466691],[16.037109,50.486039],[16.033599,50.505386],[16.030086,50.524734],[16.026571,50.544081],[15.99621,50.541836],[15.965853,50.539583],[15.935498,50.537322],[15.905147,50.535054],[15.874798,50.532777],[15.844451,50.530493],[15.814108,50.528201],[15.783767,50.525902],[15.75343,50.523594],[15.723095,50.521279],[15.692763,50.518956],[15.662434,50.516625],[15.666094,50.497288],[15.669752,50.477951],[15.673407,50.458614],[15.677059,50.439276],[15.680708,50.419939],[15.684354,50.400601],[15.687998,50.381262],[15.691638,50.361924],[15.695276,50.342585],[15.698911,50.323246],[15.702543,50.303907],[15.706172,50.284568]]]}},{"type":"Feature","properties":{"slug":"frydek-mistek","name":"Frýdek-Místek","status":"live"},"geometry":{"type":"Polygon","coordinates":[[[18.016328,49.500582],[18.046123,49.502312],[18.075921,49.504034],[18.105721,49.505749],[18.135523,49.507456],[18.165326,49.509155],[18.195132,49.510847],[18.22494,49.512531],[18.25475,49.514208],[18.284561,49.515877],[18.314375,49.517539],[18.344191,49.519192],[18.374009,49.520839],[18.371485,49.540251],[18.368959,49.559663],[18.366432,49.579075],[18.363902,49.598487],[18.36137,49.617898],[18.358837,49.637309],[18.356301,49.656721],[18.353764,49.676131],[18.351225,49.695542],[18.348676,49.714949],[18.346133,49.734359],[18.343588,49.753769],[18.31363,49.752116],[18.283675,49.750455],[18.253721,49.748786],[18.223769,49.74711],[18.193819,49.745426],[18.163872,49.743734],[18.133926,49.742035],[18.103982,49.740328],[18.074041,49.738613],[18.044101,49.736891],[18.014163,49.735161],[17.984228,49.733423],[17.986914,49.714021],[17.989597,49.694618],[17.992285,49.675217],[17.994965,49.655814],[17.997643,49.636411],[18.000318,49.617007],[18.002992,49.597603],[18.005663,49.578199],[18.008332,49.558795],[18.010999,49.539391],[18.013665,49.519986],[18.016328,49.500582]]]}},{"type":"Feature","properties":{"slug":"havirov","name":"Havířov","status":"live"},"geometry":{"type":"Polygon","coordinates":[[[18.343588,49.753769],[18.373548,49.755415],[18.403509,49.757053],[18.433473,49.758683],[18.463438,49.760306],[18.493406,49.761921],[18.523375,49.763528],[18.553346,49.765128],[18.583319,49.76672],[18.613294,49.768305],[18.643271,49.769881],[18.67325,49.771451],[18.70323,49.773012],[18.700824,49.792429],[18.698417,49.811846],[18.696007,49.831262],[18.693595,49.850678],[18.691182,49.870094],[18.688767,49.88951],[18.686349,49.908926],[18.68393,49.928341],[18.68151,49.947756],[18.679087,49.967171],[18.676662,49.986586],[18.674236,50.006],[18.644114,50.004432],[18.613993,50.002856],[18.583875,50.001272],[18.553758,49.999681],[18.523644,49.998082],[18.493531,49.996475],[18.46342,49.994861],[18.433311,49.993238],[18.403204,49.991609],[18.373099,49.989971],[18.342996,49.988326],[18.312895,49.986673],[18.315463,49.967266],[18.31803,49.947858],[18.320595,49.92845],[18.323157,49.909042],[18.325718,49.889634],[18.328277,49.870225],[18.330834,49.850816],[18.333388,49.831407],[18.335941,49.811998],[18.338492,49.792589],[18.341041,49.773179],[18.343588,49.753769]]]}},{"type":"Feature","properties":{"slug":"hradec-kralove","name":"Hradec Králové","status":"live"},"geometry":{"type":"Polygon","coordinates":[[[15.749498,50.052476],[15.77954,50.054786],[15.809586,50.057088],[15.839633,50.059382],[15.869684,50.061669],[15.899737,50.063948],[15.929794,50.066219],[15.959853,50.068483],[15.989914,50.070738],[16.019979,50.072986],[16.050046,50.075227],[16.080116,50.077459],[16.110189,50.079684],[16.106736,50.099037],[16.103281,50.118389],[16.099823,50.137741],[16.096362,50.157093],[16.092898,50.176445],[16.089432,50.195796],[16.085963,50.215148],[16.082491,50.234499],[16.079016,50.253849],[16.075539,50.2732],[16.072059,50.29255],[16.068577,50.3119],[16.038361,50.309665],[16.008148,50.307422],[15.977938,50.305172],[15.94773,50.302914],[15.917526,50.300648],[15.887324,50.298374],[15.857125,50.296092],[15.826928,50.293803],[15.796735,50.291506],[15.766544,50.289201],[15.736357,50.286888],[15.706172,50.284568],[15.709798,50.265228],[15.713421,50.245888],[15.717042,50.226548],[15.720659,50.207207],[15.724274,50.187867],[15.727886,50.168526],[15.731495,50.149185],[15.735102,50.129843],[15.738705,50.110502],[15.742306,50.09116],[15.745903,50.071818],[15.749498,50.052476]]]}},{"type":"Feature","properties":{"slug":"hronov","name":"Náchodsko a Policko","status":"computing"},"geometry":{"type":"Polygon","coordinates":[[[16.068577,50.3119],[16.098795,50.314127],[16.129016,50.316347],[16.15924,50.318558],[16.189467,50.320762],[16.219696,50.322958],[16.249928,50.325147],[16.280162,50.327327],[16.3104,50.3295],[16.34064,50.331665],[16.370882,50.333822],[16.401127,50.335971],[16.431375,50.338113],[16.428034,50.357472],[16.42469,50.376832],[16.421343,50.396191],[16.417994,50.41555],[16.414642,50.434908],[16.411287,50.454266],[16.40793,50.473624],[16.40457,50.492982],[16.401208,50.51234],[16.397843,50.531697],[16.394475,50.551054],[16.391105,50.57041],[16.360712,50.568259],[16.330322,50.5661],[16.299935,50.563934],[16.26955,50.561759],[16.239168,50.559577],[16.208789,50.557386],[16.178413,50.555188],[16.148039,50.552982],[16.117668,50.550769],[16.087299,50.548547],[16.056934,50.546318],[16.026571,50.544081],[16.030086,50.524734],[16.033599,50.505386],[16.037109,50.486039],[16.040617,50.466691],[16.044121,50.447343],[16.047623,50.427995],[16.051122,50.408646],[16.054619,50.389298],[16.058112,50.369949],[16.061603,50.350599],[16.065091,50.33125],[16.068577,50.3119]]]}},{"type":"Feature","properties":{"slug":"jihlava","name":"Jihlava","status":"live"},"geometry":{"type":"Polygon","coordinates":[[[15.52179,49.328092],[15.55138,49.330461],[15.580972,49.332822],[15.610566,49.335176],[15.640164,49.337523],[15.669765,49.339861],[15.699368,49.342192],[15.728974,49.344516],[15.758583,49.346832],[15.788195,49.34914],[15.817809,49.351441],[15.847427,49.353734],[15.877047,49.356019],[15.873552,49.375369],[15.870055,49.394718],[15.866555,49.414066],[15.863053,49.433415],[15.859547,49.452764],[15.856039,49.472112],[15.852528,49.49146],[15.849014,49.510808],[15.845498,49.530156],[15.841979,49.549504],[15.838457,49.568851],[15.834932,49.588199],[15.805173,49.585902],[15.775418,49.583599],[15.745665,49.581287],[15.715915,49.578968],[15.686168,49.576641],[15.656423,49.574307],[15.626682,49.571965],[15.596943,49.569615],[15.567207,49.567257],[15.537474,49.564892],[15.507744,49.56252],[15.478017,49.56014],[15.481681,49.540803],[15.485342,49.521467],[15.488999,49.50213],[15.492654,49.482793],[15.496307,49.463456],[15.499956,49.444119],[15.503602,49.424781],[15.507245,49.405444],[15.510886,49.386106],[15.514524,49.366768],[15.518158,49.34743],[15.52179,49.328092]]]}},{"type":"Feature","properties":{"slug":"karlovy-vary","name":"Karlovy Vary","status":"live"},"geometry":{"type":"Polygon","coordinates":[[[12.82326,50.025676],[12.853123,50.02874],[12.88299,50.031797],[12.912861,50.034846],[12.942735,50.037887],[12.972614,50.040921],[13.002496,50.043946],[13.032382,50.046965],[13.062272,50.049975],[13.092165,50.052978],[13.122062,50.055973],[13.151964,50.05896],[13.181868,50.061939],[13.177244,50.081192],[13.172616,50.100443],[13.167984,50.119695],[13.163349,50.138946],[13.158709,50.158198],[13.154066,50.177448],[13.14942,50.196699],[13.144769,50.21595],[13.140115,50.2352],[13.135457,50.25445],[13.130795,50.273699],[13.126129,50.292949],[13.096083,50.289955],[13.066041,50.286953],[13.036002,50.283944],[13.005968,50.280926],[12.975937,50.277901],[12.94591,50.274869],[12.915886,50.271828],[12.885867,50.26878],[12.855851,50.265723],[12.82584,50.26266],[12.795832,50.259588],[12.765828,50.256508],[12.770635,50.237274],[12.775439,50.218039],[12.780238,50.198803],[12.785034,50.179568],[12.789826,50.160332],[12.794614,50.141096],[12.799398,50.12186],[12.804178,50.102624],[12.808954,50.083387],[12.813727,50.06415],[12.818495,50.044913],[12.82326,50.025676]]]}},{"type":"Feature","properties":{"slug":"liberec","name":"Liberec","status":"live"},"geometry":{"type":"Polygon","coordinates":[[[14.887781,50.69009],[14.918183,50.69262],[14.948588,50.695143],[14.978997,50.697657],[15.009408,50.700163],[15.039823,50.702662],[15.070241,50.705153],[15.100661,50.707636],[15.131085,50.710111],[15.161512,50.712578],[15.191942,50.715038],[15.222376,50.717489],[15.252812,50.719933],[15.248967,50.739255],[15.245119,50.758577],[15.241269,50.777899],[15.237415,50.797221],[15.233558,50.816542],[15.229698,50.835863],[15.225835,50.855184],[15.221969,50.874504],[15.2181,50.893824],[15.214228,50.913144],[15.210352,50.932464],[15.206474,50.951783],[15.175891,50.949328],[15.145311,50.946866],[15.114734,50.944395],[15.08416,50.941917],[15.053589,50.93943],[15.023022,50.936936],[14.992457,50.934434],[14.961896,50.931924],[14.931338,50.929406],[14.900783,50.92688],[14.870231,50.924347],[14.839682,50.921805],[14.843708,50.902497],[14.84773,50.883189],[14.85175,50.86388],[14.855766,50.844571],[14.859779,50.825262],[14.863789,50.805953],[14.867796,50.786643],[14.871799,50.767333],[14.875799,50.748023],[14.879796,50.728712],[14.88379,50.709401],[14.887781,50.69009]]]}},{"type":"Feature","properties":{"slug":"most","name":"Most","status":"live"},"geometry":{"type":"Polygon","coordinates":[[[13.486974,50.32827],[13.517069,50.331163],[13.547167,50.334048],[13.577268,50.336925],[13.607373,50.339795],[13.637482,50.342657],[13.667595,50.34551],[13.697711,50.348357],[13.72783,50.351195],[13.757954,50.354026],[13.78808,50.356848],[13.818211,50.359663],[13.848344,50.362471],[13.84396,50.381747],[13.839573,50.401024],[13.835181,50.420301],[13.830787,50.439577],[13.826389,50.458853],[13.821987,50.478128],[13.817581,50.497404],[13.813173,50.516679],[13.80876,50.535954],[13.804344,50.555229],[13.799925,50.574503],[13.795502,50.593777],[13.765224,50.590957],[13.73495,50.588128],[13.70468,50.585292],[13.674413,50.582448],[13.644149,50.579596],[13.61389,50.576736],[13.583634,50.573869],[13.553381,50.570994],[13.523133,50.56811],[13.492888,50.565219],[13.462646,50.562321],[13.432408,50.559414],[13.436976,50.540153],[13.441539,50.520892],[13.446099,50.501631],[13.450656,50.48237],[13.455208,50.463108],[13.459757,50.443847],[13.464303,50.424584],[13.468844,50.405322],[13.473382,50.386059],[13.477917,50.366797],[13.482447,50.347533],[13.486974,50.32827]]]}},{"type":"Feature","properties":{"slug":"north","name":"Mělnicko","status":"live"},"geometry":{"type":"Polygon","coordinates":[[[14.260848,50.164051],[14.290884,50.166744],[14.320923,50.169429],[14.350966,50.172107],[14.381012,50.174777],[14.411061,50.177439],[14.441114,50.180093],[14.47117,50.18274],[14.501229,50.185379],[14.531291,50.18801],[14.561357,50.190633],[14.591426,50.193249],[14.621498,50.195857],[14.61744,50.215162],[14.613379,50.234467],[14.609314,50.253772],[14.605247,50.273076],[14.601176,50.292381],[14.597101,50.311685],[14.593024,50.330989],[14.588943,50.350292],[14.584859,50.369596],[14.580772,50.388899],[14.576681,50.408202],[14.572588,50.427505],[14.542372,50.424884],[14.51216,50.422257],[14.481951,50.419621],[14.451746,50.416978],[14.421544,50.414326],[14.391345,50.411667],[14.361149,50.409],[14.330957,50.406326],[14.300768,50.403643],[14.270583,50.400953],[14.2404,50.398255],[14.210222,50.395549],[14.214459,50.376259],[14.218693,50.356968],[14.222924,50.337678],[14.227151,50.318387],[14.231375,50.299096],[14.235595,50.279804],[14.239812,50.260513],[14.244026,50.241221],[14.248237,50.221928],[14.252444,50.202636],[14.256647,50.183344],[14.260848,50.164051]]]}},{"type":"Feature","properties":{"slug":"northwest","name":"Kladensko","status":"live"},"geometry":{"type":"Polygon","coordinates":[[[13.90068,50.131128],[13.930675,50.133915],[13.960674,50.136693],[13.990676,50.139464],[14.020681,50.142226],[14.05069,50.144982],[14.080702,50.147729],[14.110718,50.150469],[14.140737,50.153201],[14.17076,50.155925],[14.200786,50.158641],[14.230815,50.16135],[14.260848,50.164051],[14.256647,50.183344],[14.252444,50.202636],[14.248237,50.221928],[14.244026,50.241221],[14.239812,50.260513],[14.235595,50.279804],[14.231375,50.299096],[14.227151,50.318387],[14.222924,50.337678],[14.218693,50.356968],[14.214459,50.376259],[14.210222,50.395549],[14.180046,50.392835],[14.149874,50.390114],[14.119706,50.387385],[14.089541,50.384648],[14.059379,50.381903],[14.029221,50.37915],[13.999066,50.37639],[13.968915,50.373621],[13.938767,50.370845],[13.908623,50.368062],[13.878482,50.36527],[13.848344,50.362471],[13.852725,50.343193],[13.857102,50.323916],[13.861476,50.304638],[13.865846,50.28536],[13.870212,50.266082],[13.874575,50.246804],[13.878935,50.227525],[13.883291,50.208246],[13.887644,50.188967],[13.891993,50.169688],[13.896338,50.150408],[13.90068,50.131128]]]}},{"type":"Feature","properties":{"slug":"olomouc","name":"Olomouc","status":"live"},"geometry":{"type":"Polygon","coordinates":[[[16.945131,49.433229],[16.974846,49.435233],[17.004564,49.43723],[17.034285,49.439219],[17.064007,49.4412],[17.093732,49.443174],[17.123459,49.44514],[17.153189,49.447098],[17.182921,49.449049],[17.212656,49.450993],[17.242392,49.452928],[17.272131,49.454856],[17.301873,49.456777],[17.298931,49.476165],[17.295988,49.495553],[17.293042,49.514941],[17.290094,49.534328],[17.287143,49.553716],[17.28419,49.573103],[17.281235,49.59249],[17.278278,49.611877],[17.275318,49.631264],[17.272352,49.650651],[17.269388,49.670038],[17.266421,49.689424],[17.236541,49.687495],[17.206662,49.685558],[17.176786,49.683614],[17.146913,49.681662],[17.117041,49.679702],[17.087172,49.677735],[17.057306,49.67576],[17.027441,49.673777],[16.997579,49.671787],[16.96772,49.669789],[16.937863,49.667783],[16.908008,49.66577],[16.911115,49.646393],[16.914219,49.627016],[16.917324,49.607635],[16.920423,49.588258],[16.92352,49.56888],[16.926615,49.549502],[16.929707,49.530123],[16.932796,49.510745],[16.935884,49.491366],[16.938968,49.471987],[16.942051,49.452608],[16.945131,49.433229]]]}},{"type":"Feature","properties":{"slug":"opava","name":"Opava","status":"live"},"geometry":{"type":"Polygon","coordinates":[[[17.625167,49.711975],[17.655077,49.713804],[17.684989,49.715626],[17.714903,49.71744],[17.74482,49.719247],[17.774738,49.721046],[17.804659,49.722837],[17.834582,49.724621],[17.864507,49.726396],[17.894434,49.728165],[17.924363,49.729925],[17.954295,49.731678],[17.984228,49.733423],[17.98154,49.752826],[17.97885,49.772228],[17.976158,49.79163],[17.973465,49.811032],[17.970768,49.830433],[17.96807,49.849834],[17.96537,49.869235],[17.962668,49.888636],[17.959963,49.908037],[17.957257,49.927437],[17.954548,49.946838],[17.951838,49.966237],[17.921763,49.964484],[17.89169,49.962724],[17.86162,49.960955],[17.831551,49.959179],[17.801485,49.957396],[17.771421,49.955604],[17.741359,49.953805],[17.711299,49.951998],[17.681242,49.950183],[17.651186,49.948361],[17.621133,49.946531],[17.591082,49.944694],[17.593934,49.925302],[17.596785,49.905909],[17.599633,49.886517],[17.602479,49.867124],[17.605322,49.847731],[17.608164,49.828338],[17.611003,49.808945],[17.61384,49.789551],[17.616675,49.770157],[17.619508,49.750763],[17.622338,49.731369],[17.625167,49.711975]]]}},{"type":"Feature","properties":{"slug":"ostrava","name":"Ostrava","status":"live"},"geometry":{"type":"Polygon","coordinates":[[[17.984228,49.733423],[18.014163,49.735161],[18.044101,49.736891],[18.074041,49.738613],[18.103982,49.740328],[18.133926,49.742035],[18.163872,49.743734],[18.193819,49.745426],[18.223769,49.74711],[18.253721,49.748786],[18.283675,49.750455],[18.31363,49.752116],[18.343588,49.753769],[18.341041,49.773179],[18.338492,49.792589],[18.335941,49.811998],[18.333388,49.831407],[18.330834,49.850816],[18.328277,49.870225],[18.325718,49.889634],[18.323157,49.909042],[18.320595,49.92845],[18.31803,49.947858],[18.315463,49.967266],[18.312895,49.986673],[18.282795,49.985012],[18.252698,49.983344],[18.222603,49.981668],[18.19251,49.979984],[18.162419,49.978293],[18.13233,49.976594],[18.102242,49.974887],[18.072157,49.973172],[18.042074,49.97145],[18.011993,49.96972],[17.981914,49.967983],[17.951838,49.966237],[17.954548,49.946838],[17.957257,49.927437],[17.959963,49.908037],[17.962668,49.888636],[17.96537,49.869235],[17.96807,49.849834],[17.970768,49.830433],[17.973465,49.811032],[17.976158,49.79163],[17.97885,49.772228],[17.98154,49.752826],[17.984228,49.733423]]]}},{"type":"Feature","properties":{"slug":"pardubice","name":"Pardubice","status":"live"},"geometry":{"type":"Polygon","coordinates":[[[15.792417,49.820352],[15.822318,49.822651],[15.852222,49.824943],[15.882128,49.827226],[15.912038,49.829503],[15.94195,49.831771],[15.971865,49.834032],[16.001782,49.836285],[16.031703,49.838531],[16.061626,49.840768],[16.091551,49.842998],[16.12148,49.845221],[16.151411,49.847435],[16.147991,49.866791],[16.144568,49.886146],[16.141142,49.905501],[16.137713,49.924855],[16.134282,49.94421],[16.130849,49.963564],[16.127412,49.982918],[16.123973,50.002271],[16.120531,50.021625],[16.117086,50.040978],[16.113639,50.060331],[16.110189,50.079684],[16.080116,50.077459],[16.050046,50.075227],[16.019979,50.072986],[15.989914,50.070738],[15.959853,50.068483],[15.929794,50.066219],[15.899737,50.063948],[15.869684,50.061669],[15.839633,50.059382],[15.809586,50.057088],[15.77954,50.054786],[15.749498,50.052476],[15.75309,50.033133],[15.75668,50.013791],[15.760266,49.994448],[15.76385,49.975104],[15.76743,49.955761],[15.771008,49.936418],[15.774584,49.917074],[15.778156,49.89773],[15.781725,49.878386],[15.785292,49.859041],[15.788856,49.839697],[15.792417,49.820352]]]}},{"type":"Feature","properties":{"slug":"plzen","name":"Plzeň","status":"live"},"geometry":{"type":"Polygon","coordinates":[[[13.29174,49.599824],[13.321371,49.602767],[13.351005,49.605702],[13.380642,49.60863],[13.410283,49.61155],[13.439928,49.614463],[13.469577,49.617368],[13.499229,49.620265],[13.528884,49.623154],[13.558544,49.626036],[13.588206,49.62891],[13.617873,49.631777],[13.647542,49.634636],[13.643145,49.653907],[13.638743,49.673179],[13.634339,49.692449],[13.62993,49.71172],[13.625518,49.730991],[13.621103,49.750261],[13.616684,49.769531],[13.612261,49.788801],[13.607835,49.808071],[13.603405,49.82734],[13.598972,49.84661],[13.594535,49.865879],[13.564727,49.863006],[13.534922,49.860125],[13.50512,49.857237],[13.475322,49.854341],[13.445528,49.851437],[13.415737,49.848526],[13.38595,49.845607],[13.356167,49.84268],[13.326387,49.839746],[13.296611,49.836804],[13.266839,49.833854],[13.23707,49.830897],[13.241646,49.811642],[13.246218,49.792387],[13.250787,49.773131],[13.255352,49.753876],[13.259913,49.73462],[13.264471,49.715364],[13.269025,49.696108],[13.273575,49.676852],[13.278122,49.657595],[13.282665,49.638338],[13.287205,49.619081],[13.29174,49.599824]]]}},{"type":"Feature","properties":{"slug":"prague","name":"Praha","status":"live"},"geometry":{"type":"Polygon","coordinates":[[[14.31099,49.932519],[14.340885,49.935199],[14.370783,49.937872],[14.400684,49.940537],[14.430589,49.943194],[14.460497,49.945844],[14.490408,49.948486],[14.520322,49.95112],[14.55024,49.953747],[14.580161,49.956365],[14.610085,49.958976],[14.640013,49.96158],[14.669943,49.964175],[14.665924,49.983483],[14.661901,50.002791],[14.657876,50.022099],[14.653846,50.041406],[14.649814,50.060713],[14.645779,50.08002],[14.64174,50.099327],[14.637698,50.118633],[14.633653,50.137939],[14.629605,50.157245],[14.625553,50.176551],[14.621498,50.195857],[14.591426,50.193249],[14.561357,50.190633],[14.531291,50.18801],[14.501229,50.185379],[14.47117,50.18274],[14.441114,50.180093],[14.411061,50.177439],[14.381012,50.174777],[14.350966,50.172107],[14.320923,50.169429],[14.290884,50.166744],[14.260848,50.164051],[14.265044,50.144758],[14.269238,50.125464],[14.273428,50.106171],[14.277615,50.086877],[14.281799,50.067583],[14.285979,50.048289],[14.290156,50.028994],[14.294329,50.0097],[14.298499,49.990405],[14.302666,49.97111],[14.30683,49.951815],[14.31099,49.932519]]]}},{"type":"Feature","properties":{"slug":"slapanice","name":"Šlapanice a Slavkov","status":"computing"},"geometry":{"type":"Polygon","coordinates":[[[16.665229,48.943666],[16.694641,48.945742],[16.724055,48.947811],[16.753472,48.949872],[16.782892,48.951925],[16.812314,48.953971],[16.841738,48.95601],[16.871165,48.95804],[16.900594,48.960064],[16.930026,48.96208],[16.95946,48.964088],[16.988896,48.966088],[17.018335,48.968082],[17.015312,48.987464],[17.012287,49.006847],[17.009259,49.02623],[17.006229,49.045612],[17.003197,49.064994],[17.000162,49.084376],[16.997125,49.103758],[16.994086,49.12314],[16.991044,49.142522],[16.988,49.161903],[16.984953,49.181285],[16.981904,49.200666],[16.952329,49.198664],[16.922756,49.196653],[16.893186,49.194636],[16.863618,49.192611],[16.834052,49.190578],[16.804489,49.188537],[16.774928,49.186489],[16.74537,49.184434],[16.715814,49.182371],[16.686261,49.1803],[16.65671,49.178222],[16.627162,49.176136],[16.630348,49.156765],[16.633531,49.137393],[16.636712,49.118021],[16.63989,49.098648],[16.643066,49.079276],[16.64624,49.059904],[16.649411,49.040531],[16.652579,49.021158],[16.655745,49.001786],[16.658909,48.982413],[16.66207,48.96304],[16.665229,48.943666]]]}},{"type":"Feature","properties":{"slug":"usti","name":"Ústí nad Labem a Teplice","status":"live"},"geometry":{"type":"Polygon","coordinates":[[[13.795502,50.593777],[13.825783,50.59659],[13.856067,50.599395],[13.886356,50.602192],[13.916647,50.604981],[13.946943,50.607762],[13.977242,50.610535],[14.007544,50.613301],[14.03785,50.616059],[14.068159,50.618809],[14.098472,50.621551],[14.128788,50.624285],[14.159107,50.627012],[14.154826,50.646298],[14.15054,50.665585],[14.146252,50.684871],[14.14196,50.704157],[14.137664,50.723443],[14.133365,50.742729],[14.129063,50.762014],[14.124757,50.781299],[14.120448,50.800583],[14.116135,50.819868],[14.111819,50.839152],[14.107499,50.858436],[14.077034,50.855696],[14.046572,50.852949],[14.016113,50.850195],[13.985658,50.847432],[13.955207,50.844661],[13.924759,50.841883],[13.894315,50.839096],[13.863874,50.836302],[13.833437,50.8335],[13.803003,50.830689],[13.772573,50.827871],[13.742146,50.825045],[13.746612,50.805775],[13.751075,50.786503],[13.755533,50.767232],[13.759989,50.74796],[13.76444,50.728688],[13.768888,50.709416],[13.773333,50.690144],[13.777774,50.670871],[13.782211,50.651598],[13.786645,50.632325],[13.791075,50.613051],[13.795502,50.593777]]]}},{"type":"Feature","properties":{"slug":"west","name":"Berounsko","status":"live"},"geometry":{"type":"Polygon","coordinates":[[[13.952515,49.899753],[13.982369,49.902526],[14.012226,49.905291],[14.042088,49.908049],[14.071952,49.910798],[14.10182,49.91354],[14.131691,49.916275],[14.161566,49.919001],[14.191444,49.92172],[14.221325,49.924432],[14.25121,49.927135],[14.281098,49.929831],[14.31099,49.932519],[14.30683,49.951815],[14.302666,49.97111],[14.298499,49.990405],[14.294329,50.0097],[14.290156,50.028994],[14.285979,50.048289],[14.281799,50.067583],[14.277615,50.086877],[14.273428,50.106171],[14.269238,50.125464],[14.265044,50.144758],[14.260848,50.164051],[14.230815,50.16135],[14.200786,50.158641],[14.17076,50.155925],[14.140737,50.153201],[14.110718,50.150469],[14.080702,50.147729],[14.05069,50.144982],[14.020681,50.142226],[13.990676,50.139464],[13.960674,50.136693],[13.930675,50.133915],[13.90068,50.131128],[13.905019,50.111848],[13.909354,50.092568],[13.913686,50.073288],[13.918014,50.054007],[13.922339,50.034726],[13.92666,50.015445],[13.930978,49.996163],[13.935292,49.976882],[13.939603,49.9576],[13.94391,49.938318],[13.948214,49.919036],[13.952515,49.899753]]]}},{"type":"Feature","properties":{"slug":"zlin","name":"Zlín","status":"live"},"geometry":{"type":"Polygon","coordinates":[[[17.371781,48.991412],[17.40125,48.993308],[17.430721,48.995195],[17.460194,48.997076],[17.489669,48.998948],[17.519147,49.000813],[17.548627,49.002671],[17.578109,49.004521],[17.607593,49.006363],[17.637079,49.008198],[17.666568,49.010026],[17.696058,49.011846],[17.725551,49.013658],[17.7228,49.033059],[17.720048,49.052459],[17.717293,49.071859],[17.714536,49.091259],[17.711777,49.110659],[17.709015,49.130059],[17.706252,49.149458],[17.703486,49.168858],[17.700719,49.188257],[17.697949,49.207656],[17.695177,49.227055],[17.692402,49.246454],[17.662773,49.244633],[17.633145,49.242805],[17.60352,49.240969],[17.573896,49.239126],[17.544275,49.237275],[17.514656,49.235416],[17.48504,49.23355],[17.455425,49.231676],[17.425813,49.229795],[17.396203,49.227906],[17.366596,49.226009],[17.33699,49.224105],[17.339902,49.204715],[17.342811,49.185325],[17.345718,49.165934],[17.348623,49.146543],[17.351526,49.127152],[17.354426,49.107761],[17.357324,49.08837],[17.36022,49.068979],[17.363114,49.049588],[17.366005,49.030196],[17.368894,49.010804],[17.371781,48.991412]]]}}]}